[{"OBJECT_NAME":"OBJECT AD","OBJECT_ID":"2023-085AD","EPOCH":"2026-03-09T21:41:29.115744","MEAN_MOTION":15.31779154,"ECCENTRICITY":0.00101154,"INCLINATION":97.4841,"RA_OF_ASC_NODE":180.2223,"ARG_OF_PERICENTER":77.5993,"MEAN_ANOMALY":282.638,"EPHEMERIS_TYPE":0,"CLASSIFICATION_TYPE":"U","NORAD_CAT_ID":57031,"ELEMENT_SET_NO":999,"REV_AT_EPOCH":15156,"BSTAR":0.00068352515,"MEAN_MOTION_DOT":0.00020961,"MEAN_MOTION_DDOT":0},{"OBJECT_NAME":"SL-8 R\/B","OBJECT_ID":"1994-061B","EPOCH":"2026-03-09T22:11:39.346944","MEAN_MOTION":14.28263907,"ECCENTRICITY":0.05977746,"INCLINATION":82.9619,"RA_OF_ASC_NODE":21.337,"ARG_OF_PERICENTER":318.8014,"MEAN_ANOMALY":36.9463,"EPHEMERIS_TYPE":0,"CLASSIFICATION_TYPE":"U","NORAD_CAT_ID":23279,"ELEMENT_SET_NO":999,"REV_AT_EPOCH":57143,"BSTAR":0.00083232798,"MEAN_MOTION_DOT":0.00016203,"MEAN_MOTION_DDOT":0}]
